0 PSLV DEB
1 27121U 01049BR  13282.02492948  .00016630  00000-0  18907-2 0  1345
2 27121 097.4427 027.9544 0077220 173.9802 241.9146 14.84136587633586
0 PSLV DEB
1 27121U 01049BR  13283.11615861  .00015628  00000-0  17758-2 0  1357
2 27121 097.4426 028.9726 0077273 170.3336 312.3430 14.84168142633748
0 PSLV DEB
1 27121U 01049BR  13286.14935338  .00011925  00000-0  13547-2 0  1377
2 27121 097.4431 031.8035 0077230 160.5292 318.9000 14.84241722634196
0 PSLV DEB
1 27121U 01049BR  13287.49984241  .00013115  00000-0  14882-2 0  1380
2 27121 097.4435 033.0642 0077195 156.2021 334.8680 14.84267790634396
0 PSLV DEB
1 27121U 01049BR  13288.51104222  .00019407  00000-0  21956-2 0  1398
2 27121 097.4439 034.0082 0077161 152.8823 338.1327 14.84303818634548
0 PSLV DEB
1 27121U 01049BR  13289.52185418  .00018106  00000-0  20476-2 0  1409
2 27121 097.4443 034.9518 0077141 149.5581 339.4553 14.84336185634692
0 PSLV DEB
1 27121U 01049BR  13290.53296495  .00018633  00000-0  21054-2 0  1419
2 27121 097.4446 035.8959 0077113 146.2556 342.4540 14.84366340634842
0 PSLV DEB
1 27121U 01049BR  13291.81157933  .00014873  00000-0  16812-2 0  1423
2 27121 097.4446 037.0899 0077000 142.1451 334.9938 14.84406409635033
0 PSLV DEB
1 27121U 01049BR  13292.94772560  .00013841  00000-0  15642-2 0  1432
2 27121 097.4443 038.1509 0076899 138.4999 286.3690 14.84436564635209
0 PSLV DEB
1 27121U 01049BR  13293.95674763  .00015996  00000-0  18052-2 0  1442
2 27121 097.4440 039.0931 0076895 135.2094 278.5666 14.84461099635355
0 PSLV DEB
1 27121U 01049BR  13294.96799082  .00016530  00000-0  18640-2 0  1455
2 27121 097.4439 040.0375 0076889 131.8903 282.7526 14.84486296635506
